[{"OBJECT_NAME":"STARLINK-4618","OBJECT_ID":"2022-107AM","EPOCH":"2026-03-09T19:20:54.533472","MEAN_MOTION":15.08855213,"ECCENTRICITY":0.00010578,"INCLINATION":53.2167,"RA_OF_ASC_NODE":263.4124,"ARG_OF_PERICENTER":70.1068,"MEAN_ANOMALY":290.0038,"EPHEMERIS_TYPE":0,"CLASSIFICATION_TYPE":"U","NORAD_CAT_ID":53735,"ELEMENT_SET_NO":999,"REV_AT_EPOCH":19446,"BSTAR":-0.00022594121,"MEAN_MOTION_DOT":-3.883e-5,"MEAN_MOTION_DDOT":0},{"OBJECT_NAME":"FENGYUN 1C DEB","OBJECT_ID":"1999-025DNE","EPOCH":"2026-03-03T04:32:20.578848","MEAN_MOTION":15.05751159,"ECCENTRICITY":0.01321557,"INCLINATION":98.9662,"RA_OF_ASC_NODE":53.9178,"ARG_OF_PERICENTER":282.0758,"MEAN_ANOMALY":76.5683,"EPHEMERIS_TYPE":0,"CLASSIFICATION_TYPE":"U","NORAD_CAT_ID":35174,"ELEMENT_SET_NO":999,"REV_AT_EPOCH":91373,"BSTAR":0.0030573957,"MEAN_MOTION_DOT":0.00054187,"MEAN_MOTION_DDOT":0}]
